{"type": "FeatureCollection", "features": [ {"type": "Feature", "properties": {"norad_id": 28649, "name": "IRS-P5 (CARTOSAT-1)", "group": "resource", "lat": -81.41500064924841, "lon": 79.5375189596137, "alt_km": 604.4044024859595, "timestamp": "2025-12-17T21:39:45.365226+00:00", "meta": {"OBJECT_NAME": "IRS-P5 (CARTOSAT-1)", "OBJECT_ID": "2005-017A", "EPOCH": "2025-12-17T13:59:28.329792", "MEAN_MOTION": 14.90421313, "ECCENTRICITY": 9.27e-05, "INCLINATION": 97.5489, "RA_OF_ASC_NODE": 17.7816, "ARG_OF_PERICENTER": 45.7757, "MEAN_ANOMALY": 314.3538, "EPHEMERIS_TYPE": 0, "CLASSIFICATION_TYPE": "U", "NORAD_CAT_ID": 28649, "ELEMENT_SET_NO": 999, "REV_AT_EPOCH": 11676, "BSTAR": 0.00014187787, "MEAN_MOTION_DOT": 1.33e-05, "MEAN_MOTION_DDOT": 0}, "tle": {"line1": "1 28649U 05017A   25351.58296678  .00001330  00000+0  14188-3 0  9990", "line2": "2 28649  97.5489  17.7816 0000927  45.7757 314.3538 14.90421313116762"}}, "geometry": {"type": "Point", "coordinates": [79.5375189596137, -81.41500064924841]}}, {"type": "Feature", "properties": {"norad_id": 28893, "name": "SINAH 1", "group": "resource", "lat": 42.411774909050564, "lon": -51.90009492096268, "alt_km": 666.3238628887921, "timestamp": "2025-12-17T21:39:45.365237+00:00", "meta": {"OBJECT_NAME": "SINAH 1", "OBJECT_ID": "2005-043D", "EPOCH": "2025-12-17T14:28:42.908160", "MEAN_MOTION": 14.6396775, "ECCENTRICITY": 0.00155457, "INCLINATION": 98.2606, "RA_OF_ASC_NODE": 120.1735, "ARG_OF_PERICENTER": 122.713, "MEAN_ANOMALY": 237.5574, "EPHEMERIS_TYPE": 0, "CLASSIFICATION_TYPE": "U", "NORAD_CAT_ID": 28893, "ELEMENT_SET_NO": 999, "REV_AT_EPOCH": 7395, "BSTAR": 7.6877581e-05, "MEAN_MOTION_DOT": 3.54e-06, "MEAN_MOTION_DDOT": 0}, "tle": {"line1": "1 28893U 05043D   25351.60327440  .00000354  00000+0  76878-4 0  9995", "line2": "2 28893  98.2606 120.1735 0015545 122.7130 237.5574 14.63967750 73953"}}, "geometry": {"type": "Point", "coordinates": [-51.90009492096268, 42.411774909050564]}}, {"type": "Feature", "properties": {"norad_id": 29079, "name": "EROS B", "group": "resource", "lat": -61.90226289133286, "lon": 122.71291314640965, "alt_km": 364.4016495517353, "timestamp": "2025-12-17T21:39:45.365247+00:00", "meta": {"OBJECT_NAME": "EROS B", "OBJECT_ID": "2006-014A", "EPOCH": "2025-12-17T14:16:49.378944", "MEAN_MOTION": 15.69789689, "ECCENTRICITY": 0.0003124, "INCLINATION": 97.3463, "RA_OF_ASC_NODE": 108.4059, "ARG_OF_PERICENTER": 311.9834, "MEAN_ANOMALY": 48.1162, "EPHEMERIS_TYPE": 0, "CLASSIFICATION_TYPE": "U", "NORAD_CAT_ID": 29079, "ELEMENT_SET_NO": 999, "REV_AT_EPOCH": 9156, "BSTAR": 0.0011965041, "MEAN_MOTION_DOT": 0.00144451, "MEAN_MOTION_DDOT": 0}, "tle": {"line1": "1 29079U 06014A   25351.59501596  .00144451  00000+0  11965-2 0  9996", "line2": "2 29079  97.3463 108.4059 0003124 311.9834  48.1162 15.69789689 91568"}}, "geometry": {"type": "Point", "coordinates": [122.71291314640965, -61.90226289133286]}}, {"type": "Feature", "properties": {"norad_id": 29228, "name": "RESURS-DK 1", "group": "resource", "lat": -58.037639491115144, "lon": -55.642165671294094, "alt_km": 531.3129439537479, "timestamp": "2025-12-17T21:39:45.365257+00:00", "meta": {"OBJECT_NAME": "RESURS-DK 1", "OBJECT_ID": "2006-021A", "EPOCH": "2025-12-17T14:14:02.739264", "MEAN_MOTION": 15.12188609, "ECCENTRICITY": 0.00069222, "INCLINATION": 69.9338, "RA_OF_ASC_NODE": 89.2957, "ARG_OF_PERICENTER": 255.5568, "MEAN_ANOMALY": 104.483, "EPHEMERIS_TYPE": 0, "CLASSIFICATION_TYPE": "U", "NORAD_CAT_ID": 29228, "ELEMENT_SET_NO": 999, "REV_AT_EPOCH": 7511, "BSTAR": 0.00013712567, "MEAN_MOTION_DOT": 2.266e-05, "MEAN_MOTION_DDOT": 0}, "tle": {"line1": "1 29228U 06021A   25351.59308726  .00002266  00000+0  13713-3 0  9991", "line2": "2 29228  69.9338  89.2957 0006922 255.5568 104.4830 15.12188609 75113"}}, "geometry": {"type": "Point", "coordinates": [-55.642165671294094, -58.037639491115144]}}, {"type": "Feature", "properties": {"norad_id": 29268, "name": "ARIRANG-2 (KOMPSAT-2)", "group": "resource", "lat": 51.41979542550334, "lon": 170.19570704062775, "alt_km": 678.7023462315983, "timestamp": "2025-12-17T21:39:45.365267+00:00", "meta": {"OBJECT_NAME": "ARIRANG-2 (KOMPSAT-2)", "OBJECT_ID": "2006-031A", "EPOCH": "2025-12-17T15:10:53.438880", "MEAN_MOTION": 14.64498069, "ECCENTRICITY": 0.0013301, "INCLINATION": 97.8257, "RA_OF_ASC_NODE": 179.8666, "ARG_OF_PERICENTER": 292.4568, "MEAN_ANOMALY": 136.7055, "EPHEMERIS_TYPE": 0, "CLASSIFICATION_TYPE": "U", "NORAD_CAT_ID": 29268, "ELEMENT_SET_NO": 999, "REV_AT_EPOCH": 3490, "BSTAR": 5.7983422e-05, "MEAN_MOTION_DOT": 2.62e-06, "MEAN_MOTION_DDOT": 0}, "tle": {"line1": "1 29268U 06031A   25351.63256295  .00000262  00000+0  57983-4 0  9996", "line2": "2 29268  97.8257 179.8666 0013301 292.4568 136.7055 14.64498069 34908"}}, "geometry": {"type": "Point", "coordinates": [170.19570704062775, 51.41979542550334]}}, {"type": "Feature", "properties": {"norad_id": 29709, "name": "LAPAN-TUBSAT", "group": "resource", "lat": 19.42304027618866, "lon": -20.72206678345161, "alt_km": 604.2531214437167, "timestamp": "2025-12-17T21:39:45.365276+00:00", "meta": {"OBJECT_NAME": "LAPAN-TUBSAT", "OBJECT_ID": "2007-001A", "EPOCH": "2025-12-17T15:06:32.600736", "MEAN_MOTION": 14.85678751, "ECCENTRICITY": 0.001357, "INCLINATION": 98.1255, "RA_OF_ASC_NODE": 341.8869, "ARG_OF_PERICENTER": 59.5185, "MEAN_ANOMALY": 300.7367, "EPHEMERIS_TYPE": 0, "CLASSIFICATION_TYPE": "U", "NORAD_CAT_ID": 29709, "ELEMENT_SET_NO": 999, "REV_AT_EPOCH": 2419, "BSTAR": 5.5401477e-05, "MEAN_MOTION_DOT": 4.23e-06, "MEAN_MOTION_DDOT": 0}, "tle": {"line1": "1 29709U 07001A   25351.62954399  .00000423  00000+0  55401-4 0  9995", "line2": "2 29709  98.1255 341.8869 0013570  59.5185 300.7367 14.85678751 24191"}}, "geometry": {"type": "Point", "coordinates": [-20.72206678345161, 19.42304027618866]}}, {"type": "Feature", "properties": {"norad_id": 31113, "name": "HAIYANG-1B", "group": "resource", "lat": -30.181860086214805, "lon": -19.143358781314173, "alt_km": 788.4773411976639, "timestamp": "2025-12-17T21:39:45.365286+00:00", "meta": {"OBJECT_NAME": "HAIYANG-1B", "OBJECT_ID": "2007-010A", "EPOCH": "2025-12-17T13:24:50.203296", "MEAN_MOTION": 14.30966735, "ECCENTRICITY": 0.00140383, "INCLINATION": 98.3317, "RA_OF_ASC_NODE": 335.638, "ARG_OF_PERICENTER": 24.3905, "MEAN_ANOMALY": 335.7941, "EPHEMERIS_TYPE": 0, "CLASSIFICATION_TYPE": "U", "NORAD_CAT_ID": 31113, "ELEMENT_SET_NO": 999, "REV_AT_EPOCH": 97465, "BSTAR": 5.5191365e-05, "MEAN_MOTION_DOT": 1.04e-06, "MEAN_MOTION_DDOT": 0}, "tle": {"line1": "1 31113U 07010A   25351.55891439  .00000104  00000+0  55191-4 0  9996", "line2": "2 31113  98.3317 335.6380 0014038  24.3905 335.7941 14.30966735974656"}}, "geometry": {"type": "Point", "coordinates": [-19.143358781314173, -30.181860086214805]}}, {"type": "Feature", "properties": {"norad_id": 31598, "name": "COSMO-SKYMED 1", "group": "resource", "lat": 16.276818428630378, "lon": -0.3460518704609931, "alt_km": 580.3246517072057, "timestamp": "2025-12-17T21:39:45.365295+00:00", "meta": {"OBJECT_NAME": "COSMO-SKYMED 1", "OBJECT_ID": "2007-023A", "EPOCH": "2025-12-17T14:30:44.820288", "MEAN_MOTION": 14.95803152, "ECCENTRICITY": 0.00015453, "INCLINATION": 97.8835, "RA_OF_ASC_NODE": 177.0355, "ARG_OF_PERICENTER": 87.7743, "MEAN_ANOMALY": 272.3655, "EPHEMERIS_TYPE": 0, "CLASSIFICATION_TYPE": "U", "NORAD_CAT_ID": 31598, "ELEMENT_SET_NO": 999, "REV_AT_EPOCH": 263, "BSTAR": 0.00032318778, "MEAN_MOTION_DOT": 3.548e-05, "MEAN_MOTION_DDOT": 0}, "tle": {"line1": "1 31598U 07023A   25351.60468542  .00003548  00000+0  32319-3 0  9999", "line2": "2 31598  97.8835 177.0355 0001545  87.7743 272.3655 14.95803152  2636"}}, "geometry": {"type": "Point", "coordinates": [-0.3460518704609931, 16.276818428630378]}}, {"type": "Feature", "properties": {"norad_id": 31698, "name": "TERRASAR-X", "group": "resource", "lat": -71.27824157900037, "lon": 154.50981566475818, "alt_km": 516.9301976685938, "timestamp": "2025-12-17T21:39:45.365305+00:00", "meta": {"OBJECT_NAME": "TERRASAR-X", "OBJECT_ID": "2007-026A", "EPOCH": "2025-12-17T14:13:48.329472", "MEAN_MOTION": 15.19149756, "ECCENTRICITY": 0.00018426, "INCLINATION": 97.4455, "RA_OF_ASC_NODE": 356.9029, "ARG_OF_PERICENTER": 91.3746, "MEAN_ANOMALY": 268.77, "EPHEMERIS_TYPE": 0, "CLASSIFICATION_TYPE": "U", "NORAD_CAT_ID": 31698, "ELEMENT_SET_NO": 999, "REV_AT_EPOCH": 2565, "BSTAR": 4.5889707e-05, "MEAN_MOTION_DOT": 8.97e-06, "MEAN_MOTION_DDOT": 0}, "tle": {"line1": "1 31698U 07026A   25351.59292048  .00000897  00000+0  45890-4 0  9990", "line2": "2 31698  97.4455 356.9029 0001842  91.3746 268.7700 15.19149756 25658"}}, "geometry": {"type": "Point", "coordinates": [154.50981566475818, -71.27824157900037]}}, {"type": "Feature", "properties": {"norad_id": 32060, "name": "WORLDVIEW-1 (WV-1)", "group": "resource", "lat": -2.436694574226925, "lon": 109.62702180495077, "alt_km": 495.13614725056595, "timestamp": "2025-12-17T21:39:45.365314+00:00", "meta": {"OBJECT_NAME": "WORLDVIEW-1 (WV-1)", "OBJECT_ID": "2007-041A", "EPOCH": "2025-12-17T07:29:53.430144", "MEAN_MOTION": 15.2476548, "ECCENTRICITY": 8.726e-05, "INCLINATION": 97.3838, "RA_OF_ASC_NODE": 108.729, "ARG_OF_PERICENTER": 115.5269, "MEAN_ANOMALY": 244.6059, "EPHEMERIS_TYPE": 0, "CLASSIFICATION_TYPE": "U", "NORAD_CAT_ID": 32060, "ELEMENT_SET_NO": 999, "REV_AT_EPOCH": 1517, "BSTAR": 0.00027818133, "MEAN_MOTION_DOT": 6.823e-05, "MEAN_MOTION_DDOT": 0}, "tle": {"line1": "1 32060U 07041A   25351.31242396  .00006823  00000+0  27818-3 0  9996", "line2": "2 32060  97.3838 108.7290 0000872 115.5269 244.6059 15.24765480 15170"}}, "geometry": {"type": "Point", "coordinates": [109.62702180495077, -2.436694574226925]}}]}